[{"OBJECT_NAME":"STARLING 1","OBJECT_ID":"2023-100C","EPOCH":"2026-03-09T22:50:11.977728","MEAN_MOTION":15.06170613,"ECCENTRICITY":0.00043741,"INCLINATION":99.5156,"RA_OF_ASC_NODE":64.1519,"ARG_OF_PERICENTER":233.3149,"MEAN_ANOMALY":126.7671,"EPHEMERIS_TYPE":0,"CLASSIFICATION_TYPE":"U","NORAD_CAT_ID":57388,"ELEMENT_SET_NO":999,"REV_AT_EPOCH":14496,"BSTAR":0.00020885616,"MEAN_MOTION_DOT":2.969e-5,"MEAN_MOTION_DDOT":0},{"OBJECT_NAME":"STARLINK-35261","OBJECT_ID":"2025-207D","EPOCH":"2026-03-09T17:56:34.272096","MEAN_MOTION":15.05645009,"ECCENTRICITY":0.00012423,"INCLINATION":97.603,"RA_OF_ASC_NODE":138.7752,"ARG_OF_PERICENTER":85.1834,"MEAN_ANOMALY":274.9535,"EPHEMERIS_TYPE":0,"CLASSIFICATION_TYPE":"U","NORAD_CAT_ID":65595,"ELEMENT_SET_NO":999,"REV_AT_EPOCH":2827,"BSTAR":0.00026470351,"MEAN_MOTION_DOT":3.76e-5,"MEAN_MOTION_DDOT":0}]
